[{"OBJECT_NAME":"STARLINK-2616","OBJECT_ID":"2021-044BK","EPOCH":"2026-03-10T00:00:02.999808","MEAN_MOTION":15.30147581,"ECCENTRICITY":0.00013507,"INCLINATION":53.1598,"RA_OF_ASC_NODE":76.3491,"ARG_OF_PERICENTER":99.3044,"MEAN_ANOMALY":220.8657,"EPHEMERIS_TYPE":0,"CLASSIFICATION_TYPE":"U","NORAD_CAT_ID":48695,"ELEMENT_SET_NO":999,"REV_AT_EPOCH":586,"BSTAR":0.001540368,"MEAN_MOTION_DOT":0.00045467,"MEAN_MOTION_DDOT":0},{"OBJECT_NAME":"FLOCK 4BE-27","OBJECT_ID":"2024-149AX","EPOCH":"2026-03-09T18:04:53.053248","MEAN_MOTION":15.32593322,"ECCENTRICITY":0.00027324,"INCLINATION":97.3862,"RA_OF_ASC_NODE":150.6783,"ARG_OF_PERICENTER":305.898,"MEAN_ANOMALY":54.2008,"EPHEMERIS_TYPE":0,"CLASSIFICATION_TYPE":"U","NORAD_CAT_ID":60513,"ELEMENT_SET_NO":999,"REV_AT_EPOCH":8690,"BSTAR":0.00036576028,"MEAN_MOTION_DOT":0.00011439,"MEAN_MOTION_DDOT":0}]
